ASTROCAST-0402          
1 55109U 23001DE  26068.80661100  .00010930  00000+0  41835-3 0  9996
2 55109  97.5556 160.6821 0004209 216.6984 143.3966 15.26734153129364
STARLINK-35417          
1 66335U 25253S   26068.42540875  .00028330  00000+0  10346-2 0  9998
2 66335  42.9984 214.0338 0002869 291.1795  68.8750 15.27594286 20208
