[{"OBJECT_NAME":"ASTROCAST-0402","OBJECT_ID":"2023-001DE","EPOCH":"2026-03-09T19:21:31.190400","MEAN_MOTION":15.26734153,"ECCENTRICITY":0.00042092,"INCLINATION":97.5556,"RA_OF_ASC_NODE":160.6821,"ARG_OF_PERICENTER":216.6984,"MEAN_ANOMALY":143.3966,"EPHEMERIS_TYPE":0,"CLASSIFICATION_TYPE":"U","NORAD_CAT_ID":55109,"ELEMENT_SET_NO":999,"REV_AT_EPOCH":12936,"BSTAR":0.00041835119,"MEAN_MOTION_DOT":0.0001093,"MEAN_MOTION_DDOT":0},{"OBJECT_NAME":"STARLINK-35417","OBJECT_ID":"2025-253S","EPOCH":"2026-03-09T10:12:35.316000","MEAN_MOTION":15.27594286,"ECCENTRICITY":0.00028697,"INCLINATION":42.9984,"RA_OF_ASC_NODE":214.0338,"ARG_OF_PERICENTER":291.1795,"MEAN_ANOMALY":68.875,"EPHEMERIS_TYPE":0,"CLASSIFICATION_TYPE":"U","NORAD_CAT_ID":66335,"ELEMENT_SET_NO":999,"REV_AT_EPOCH":2020,"BSTAR":0.0010345601,"MEAN_MOTION_DOT":0.0002833,"MEAN_MOTION_DDOT":0}]
